[{"id":"57217","name":"KUZGTU 1 (RS47S)","tle1":"1 57217U 23091AV  26176.27504213  .00015492  00000+0  53403-3 0  9991","tle2":"2 57217  97.5067 240.8375 0011981  73.0259 287.2293 15.30028039165616"},{"id":"59112","name":"SONATE-2","tle1":"1 59112U 24043Q   26176.16166258  .00047417  00000+0  60151-3 0  9996","tle2":"2 59112  97.5532 327.0504 0007286 169.3652 190.7759 15.59278248129132"},{"id":"60209","name":"MESAT1","tle1":"1 60209U 24125G   26175.85014621  .00067536  00000+0  71196-3 0  9992","tle2":"2 60209  97.2287  33.5111 0010360 176.5762 183.5570 15.63976576110761"},{"id":"60240","name":"OOV-CUBE (TUBSAT-30)","tle1":"1 60240U 24128F   26176.23970213  .00001615  00000+0  13344-3 0  9998","tle2":"2 60240  61.9924 197.4933 0043634 135.5626 224.8979 15.02799943107322"},{"id":"61746","name":"COLIBRI-S (RS67S)","tle1":"1 61746U 24199M   26176.27205536  .00025961  00000+0  49672-3 0  9994","tle2":"2 61746  97.2989  50.2012 0006501 238.5443 121.5172 15.48029482138667"},{"id":"61753","name":"HORS 3 (RS81S)","tle1":"1 61753U 24199U   26176.26096547  .00046671  00000+0  68205-3 0  9995","tle2":"2 61753  97.2973  52.2649 0004222 230.7507 129.3373 15.55492749138813"},{"id":"61754","name":"HORS 4 (RS82S)","tle1":"1 61754U 24199V   26176.26090217  .00063316  00000+0  76859-3 0  9993","tle2":"2 61754  97.2919  53.5192 0004142 214.4875 145.6114 15.60395478138900"},{"id":"61764","name":"SIT-2086","tle1":"1 61764U 24199AF  26176.24901584  .00045196  00000+0  70746-3 0  9995","tle2":"2 61764  97.2934  52.7012 0005532 213.3597 146.7309 15.53602532135687"},{"id":"61772","name":"HYPERVIEW 1G (RS66S)","tle1":"1 61772U 24199AP  26176.24903614  .00198069  00000+0  11458-2 0  9992","tle2":"2 61772  97.2857  56.3874 0005668 190.3743 169.7408 15.78026726135949"},{"id":"61779","name":"ALTAIR (RS65S)","tle1":"1 61779U 24199AW  26176.24959035  .00013843  00000+0  38181-3 0  9996","tle2":"2 61779  97.3028  45.5477 0010752 277.4096  82.5926 15.37157754138350"},{"id":"61781","name":"ASRTU-1 (AO-123)","tle1":"1 61781U 24199AY  26176.30975906  .00009092  00000+0  26289-3 0  9998","tle2":"2 61781  97.2999  44.9075 0011898 280.7470  79.2434 15.35781811135170"},{"id":"61784","name":"SAMSAT-IONOSPHERE (RS7*)","tle1":"1 61784U 24199BB  26176.28087226  .00056708  00000+0  74538-3 0  9993","tle2":"2 61784  97.2941  52.3617 0006508 235.8361 124.2279 15.58298671138822"},{"id":"61785","name":"RTU MIREA 1 (RS51S)","tle1":"1 61785U 24199BC  26176.22288939  .00071852  00000+0  82142-3 0  9999","tle2":"2 61785  97.2929  53.1765 0006412 227.2253 132.8466 15.61916003135720"},{"id":"63213","name":"TEVEL2-4","tle1":"1 63213U 25052D   26176.20182265  .00022567  00000+0  66837-3 0  9991","tle2":"2 63213  97.3900  72.6073 0004923  88.3722 271.8086 15.34868529 71346"},{"id":"63214","name":"TEVEL2-5","tle1":"1 63214U 25052E   26175.44080326  .00016688  00000+0  49861-3 0  9997","tle2":"2 63214  97.3897  71.7905 0004890  91.0395 269.1409 15.34655456 71225"},{"id":"63215","name":"TEVEL2-6","tle1":"1 63215U 25052F   26175.45329957  .00016943  00000+0  50673-3 0  9992","tle2":"2 63215  97.3903  71.7876 0004713  91.5170 268.6613 15.34620549 71227"},{"id":"63217","name":"TEVEL2-1","tle1":"1 63217U 25052H   26174.96304379  .00015378  00000+0  46842-3 0  9994","tle2":"2 63217  97.3870  70.9129 0004942 100.4498 259.7302 15.34061026 71136"},{"id":"63218","name":"TEVEL2-3","tle1":"1 63218U 25052J   26176.19671782  .00021948  00000+0  66468-3 0  9993","tle2":"2 63218  97.3879  72.1699 0004854  98.3843 261.7950 15.34170059 71323"},{"id":"63219","name":"TEVEL2-2","tle1":"1 63219U 25052K   26174.96331783  .00015328  00000+0  46676-3 0  9995","tle2":"2 63219  97.3875  70.9156 0004967 100.9332 259.2469 15.34070494 71130"},{"id":"63237","name":"TEVEL2-9","tle1":"1 63237U 25052AD  26176.19045892  .00020165  00000+0  65108-3 0  9991","tle2":"2 63237  97.3938  71.5013 0008281 109.1603 251.0536 15.32121660 71252"},{"id":"63238","name":"TEVEL2-7","tle1":"1 63238U 25052AE  26176.23291854  .00019266  00000+0  62803-3 0  9997","tle2":"2 63238  97.3939  71.4562 0008375 109.3525 250.8623 15.31822175 71253"},{"id":"63239","name":"TEVEL2-8","tle1":"1 63239U 25052AF  26176.17592529  .00019699  00000+0  64240-3 0  9991","tle2":"2 63239  97.3940  71.3762 0008411 110.1774 250.0373 15.31804853 71240"},{"id":"64878","name":"INNOSAT 16 (RS92S7)","tle1":"1 64878U 25155C   26176.26698495  .00006451  00000+0  25686-3 0  9997","tle2":"2 64878  97.4561 143.3689 0011490 148.5924 211.6003 15.25534033 81901"},{"id":"64879","name":"GEOSCAN 6 (RS92S6)","tle1":"1 64879U 25155D   26176.29023247  .00011939  00000+0  40939-3 0  9993","tle2":"2 64879  97.4553 144.8738 0009269 137.7531 222.4426 15.30288622 82006"},{"id":"64880","name":"GEOSCAN 1 (RS92S1)","tle1":"1 64880U 25155E   26176.28949885  .00013280  00000+0  44653-3 0  9997","tle2":"2 64880  97.4549 145.0281 0009220 137.6091 222.5864 15.30899079 82018"},{"id":"64881","name":"239ALFEROV (RS61S)","tle1":"1 64881U 25155F   26176.24744886  .00017373  00000+0  54386-3 0  9999","tle2":"2 64881  97.4550 145.5745 0008931 135.7626 224.4332 15.33137889 82043"},{"id":"64890","name":"GEOSCAN 2 (RS92S2)","tle1":"1 64890U 25155Q   26176.21639763  .00012535  00000+0  41824-3 0  9991","tle2":"2 64890  97.4548 145.1103 0008882 126.4456 233.7605 15.31166377 82012"},{"id":"64891","name":"GEOSCAN 5 (RS92S5)","tle1":"1 64891U 25155R   26176.23480849  .00016901  00000+0  52414-3 0  9991","tle2":"2 64891  97.4541 145.7025 0007740 139.1080 221.0744 15.33453721 82053"},{"id":"64892","name":"GEOSCAN 4 (RS92S4)","tle1":"1 64892U 25155S   26176.28343250  .00016616  00000+0  51279-3 0  9992","tle2":"2 64892  97.4545 145.8022 0007810 138.4963 221.6874 15.33612176 82068"},{"id":"64893","name":"GEOSCAN 3 (RS92S3)","tle1":"1 64893U 25155T   26176.27362745  .00021758  00000+0  62861-3 0  9994","tle2":"2 64893  97.4533 146.2455 0007771 137.4926 222.6920 15.35642152 82090"}]