OBJECT_NAME,OBJECT_ID,EPOCH,MEAN_MOTION,ECCENTRICITY,INCLINATION,RA_OF_ASC_NODE,ARG_OF_PERICENTER,MEAN_ANOMALY,EPHEMERIS_TYPE,CLASSIFICATION_TYPE,NORAD_CAT_ID,ELEMENT_SET_NO,REV_AT_EPOCH,BSTAR,MEAN_MOTION_DOT,MEAN_MOTION_DDOT
KUZGTU 1 (RS47S),2023-091AV,2026-06-25T06:36:03.640032,15.30028039,.00119811,97.5067,240.8375,73.0259,287.2293,0,U,57217,999,16561,.53403E-3,.15492E-3,0
SONATE-2,2024-043Q,2026-06-25T03:52:47.646912,15.59278248,.00072863,97.5532,327.0504,169.3652,190.7759,0,U,59112,999,12913,.60151181E-3,.47417E-3,0
MESAT1,2024-125G,2026-06-24T20:24:12.632544,15.63976576,.00103609,97.2287,33.5111,176.5762,183.5570,0,U,60209,999,11076,.71195806E-3,.67536E-3,0
OOV-CUBE (TUBSAT-30),2024-128F,2026-06-25T05:45:10.264032,15.02799943,.0043634,61.9924,197.4933,135.5626,224.8979,0,U,60240,999,10732,.13343614E-3,.1615E-4,0
COLIBRI-S (RS67S),2024-199M,2026-06-25T06:31:45.583104,15.48029482,.00065011,97.2989,50.2012,238.5443,121.5172,0,U,61746,999,13866,.49671721E-3,.25961E-3,0
HORS 3 (RS81S),2024-199U,2026-06-25T06:15:47.416608,15.55492749,.00042225,97.2973,52.2649,230.7507,129.3373,0,U,61753,999,13881,.6820491E-3,.46671E-3,0
HORS 4 (RS82S),2024-199V,2026-06-25T06:15:41.947488,15.60395478,.00041423,97.2919,53.5192,214.4875,145.6114,0,U,61754,999,13890,.76858553E-3,.63316E-3,0
SIT-2086,2024-199AF,2026-06-25T05:58:34.968576,15.53602532,.00055322,97.2934,52.7012,213.3597,146.7309,0,U,61764,999,13568,.70746153E-3,.45196E-3,0
HYPERVIEW 1G (RS66S),2024-199AP,2026-06-25T05:58:36.722496,15.78026726,.00056682,97.2857,56.3874,190.3743,169.7408,0,U,61772,999,13594,.11458401E-2,.198069E-2,0
ALTAIR (RS65S),2024-199AW,2026-06-25T05:59:24.606240,15.37157754,.00107528,97.3028,45.5477,277.4096,82.5926,0,U,61779,999,13835,.38181263E-3,.13843E-3,0
ASRTU-1 (AO-123),2024-199AY,2026-06-25T07:26:03.182784,15.35781811,.0011898,97.2999,44.9075,280.7470,79.2434,0,U,61781,999,13517,.26288588E-3,.9092E-4,0
SAMSAT-IONOSPHERE (RS75S),2024-199BB,2026-06-25T06:44:27.363264,15.58298671,.00065089,97.2941,52.3617,235.8361,124.2279,0,U,61784,999,13882,.74538283E-3,.56708E-3,0
RTU MIREA 1 (RS51S),2024-199BC,2026-06-25T05:20:57.643296,15.61916003,.00064121,97.2929,53.1765,227.2253,132.8466,0,U,61785,999,13572,.82142316E-3,.71852E-3,0
TEVEL2-4,2025-052D,2026-06-25T04:50:37.476960,15.34868529,.00049239,97.3900,72.6073,88.3722,271.8086,0,U,63213,999,7134,.6683709E-3,.22567E-3,0
TEVEL2-5,2025-052E,2026-06-24T10:34:45.401664,15.34655456,.00048908,97.3897,71.7905,91.0395,269.1409,0,U,63214,999,7122,.49860982E-3,.16688E-3,0
TEVEL2-6,2025-052F,2026-06-24T10:52:45.082848,15.34620549,.0004713,97.3903,71.7876,91.5170,268.6613,0,U,63215,999,7122,.50673189E-3,.16943E-3,0
TEVEL2-1,2025-052H,2026-06-23T23:06:46.983456,15.34061026,.0004942,97.3870,70.9129,100.4498,259.7302,0,U,63217,999,7113,.46841874E-3,.15378E-3,0
TEVEL2-3,2025-052J,2026-06-25T04:43:16.419648,15.34170059,.00048548,97.3879,72.1699,98.3843,261.7950,0,U,63218,999,7132,.66468363E-3,.21948E-3,0
TEVEL2-2,2025-052K,2026-06-23T23:07:10.660512,15.34070494,.00049675,97.3875,70.9156,100.9332,259.2469,0,U,63219,999,7113,.46675971E-3,.15328E-3,0
TEVEL2-9,2025-052AD,2026-06-25T04:34:15.650688,15.32121660,.00082816,97.3938,71.5013,109.1603,251.0536,0,U,63237,999,7125,.65108019E-3,.20165E-3,0
TEVEL2-7,2025-052AE,2026-06-25T05:35:24.161856,15.31822175,.00083759,97.3939,71.4562,109.3525,250.8623,0,U,63238,999,7125,.62803458E-3,.19266E-3,0
TEVEL2-8,2025-052AF,2026-06-25T04:13:19.945056,15.31804853,.00084117,97.3940,71.3762,110.1774,250.0373,0,U,63239,999,7124,.64240417E-3,.19699E-3,0
INNOSAT 16 (RS92S7),2025-155C,2026-06-25T06:24:27.499680,15.25534033,.00114907,97.4561,143.3689,148.5924,211.6003,0,U,64878,999,8190,.2568646E-3,.6451E-4,0
GEOSCAN 6 (RS92S6),2025-155D,2026-06-25T06:57:56.085408,15.30288622,.00092696,97.4553,144.8738,137.7531,222.4426,0,U,64879,999,8200,.4093914E-3,.11939E-3,0
GEOSCAN 1 (RS92S1),2025-155E,2026-06-25T06:56:52.700640,15.30899079,.00092202,97.4549,145.0281,137.6091,222.5864,0,U,64880,999,8201,.44652843E-3,.1328E-3,0
239ALFEROV (RS61S),2025-155F,2026-06-25T05:56:19.581504,15.33137889,.0008931,97.4550,145.5745,135.7626,224.4332,0,U,64881,999,8204,.54385629E-3,.17373E-3,0
GEOSCAN 2 (RS92S2),2025-155Q,2026-06-25T05:11:36.755232,15.31166377,.00088824,97.4548,145.1103,126.4456,233.7605,0,U,64890,999,8201,.41824084E-3,.12535E-3,0
GEOSCAN 5 (RS92S5),2025-155R,2026-06-25T05:38:07.453536,15.33453721,.00077401,97.4541,145.7025,139.1080,221.0744,0,U,64891,999,8205,.5241394E-3,.16901E-3,0
GEOSCAN 4 (RS92S4),2025-155S,2026-06-25T06:48:08.568000,15.33612176,.00078108,97.4545,145.8022,138.4963,221.6874,0,U,64892,999,8206,.51278808E-3,.16616E-3,0
GEOSCAN 3 (RS92S3),2025-155T,2026-06-25T06:34:01.411680,15.35642152,.00077715,97.4533,146.2455,137.4926,222.6920,0,U,64893,999,8209,.62860693E-3,.21758E-3,0
